[{"OBJECT_NAME":"ARIRANG-3 (KOMPSAT-3)","OBJECT_ID":"2012-025B","EPOCH":"2026-03-09T22:36:31.984704","MEAN_MOTION":14.62103113,"ECCENTRICITY":0.00067165,"INCLINATION":98.1064,"RA_OF_ASC_NODE":28.1838,"ARG_OF_PERICENTER":70.2114,"MEAN_ANOMALY":289.9811,"EPHEMERIS_TYPE":0,"CLASSIFICATION_TYPE":"U","NORAD_CAT_ID":38338,"ELEMENT_SET_NO":999,"REV_AT_EPOCH":73684,"BSTAR":0.00016351481,"MEAN_MOTION_DOT":7.75e-6,"MEAN_MOTION_DDOT":0},{"OBJECT_NAME":"DUMMY CUBESAT","OBJECT_ID":"2022-065H","EPOCH":"2026-03-09T23:18:21.832992","MEAN_MOTION":14.60506881,"ECCENTRICITY":0.00071077,"INCLINATION":98.2104,"RA_OF_ASC_NODE":210.8696,"ARG_OF_PERICENTER":342.4639,"MEAN_ANOMALY":17.6315,"EPHEMERIS_TYPE":0,"CLASSIFICATION_TYPE":"U","NORAD_CAT_ID":52983,"ELEMENT_SET_NO":999,"REV_AT_EPOCH":19566,"BSTAR":0.00013850477,"MEAN_MOTION_DOT":6.25e-6,"MEAN_MOTION_DDOT":0}]
